[{"OBJECT_NAME":"STARLINK-31268","OBJECT_ID":"2024-049Q","EPOCH":"2026-03-09T22:00:01.999584","MEAN_MOTION":15.80181847,"ECCENTRICITY":0.00239404,"INCLINATION":42.9822,"RA_OF_ASC_NODE":121.2463,"ARG_OF_PERICENTER":68.2784,"MEAN_ANOMALY":176.6479,"EPHEMERIS_TYPE":0,"CLASSIFICATION_TYPE":"U","NORAD_CAT_ID":59245,"ELEMENT_SET_NO":999,"REV_AT_EPOCH":593,"BSTAR":0.00074266557,"MEAN_MOTION_DOT":0.00148493,"MEAN_MOTION_DDOT":0},{"OBJECT_NAME":"STARLINK-36988","OBJECT_ID":"2026-039N","EPOCH":"2026-03-09T22:00:01.999584","MEAN_MOTION":15.841499,"ECCENTRICITY":0.00016799,"INCLINATION":42.9984,"RA_OF_ASC_NODE":53.4317,"ARG_OF_PERICENTER":255.3888,"MEAN_ANOMALY":48.8396,"EPHEMERIS_TYPE":0,"CLASSIFICATION_TYPE":"U","NORAD_CAT_ID":67998,"ELEMENT_SET_NO":999,"REV_AT_EPOCH":291,"BSTAR":-0.0077038481,"MEAN_MOTION_DOT":-0.01574957,"MEAN_MOTION_DDOT":0}]
